STARLINK-36570          
1 67640U 26020Z   26048.06561970  .00219006  00000+0  13092-2 0  9991
2 67640  42.9972 267.2858 0001788 283.0303  77.0367 15.76438220  2830
STARLINK-36514          
1 67641U 26020AA  26047.98325419  .00104594  00000+0  49143-3 0  9990
2 67641  42.9960 267.5163 0001841 261.8111  98.2552 15.82095372  2825
STARLINK-36556          
1 67642U 26020AB  26048.16667824  .00027962  00000+0  17418-3 0  9994
2 67642  42.9980 266.5162 0001875 273.6036   2.8401 15.76360279  4099
STARLINK-36533          
1 67643U 26020AC  26048.00444220  .00056776  00000+0  34807-3 0  9997
2 67643  42.9967 267.6878 0002587 274.6350  85.4224 15.76444774  2824
STARLINK-36623          
1 67644U 26020AD  26048.06123982  .00151354  00000+0  91448-3 0  9995
2 67644  42.9975 267.2475 0001760 255.3277 104.7398 15.76401973  2831
STARLINK-36619          
1 67645U 26020AE  26048.05905023  .00185493  00000+0  11147-2 0  9997
2 67645  42.9975 267.2300 0002297 269.4331  90.6275 15.76418228  2830
ALSAT-3B                
1 67646U 26021A   26048.15691544  .00008648  00000+0  36314-3 0  9990
2 67646  97.4712 122.5824 0012205 201.5814 158.4910 15.23631420  2597
CZ-2C R/B               
1 67647U 26021B   26048.16004884  .00015819  00000+0  47660-3 0  9991
2 67647  97.6553 123.2160 0153430  82.6012 279.2630 15.23525942  2578
STARLINK-36719          
1 67648U 26022A   26048.16667824  .00003982  00000+0  27560-4 0  9998
2 67648  97.2839  81.1208 0001379  79.1159  53.6933 15.75185721  3591
STARLINK-36342          
1 67649U 26022B   26048.16667824  .00044459  00000+0  29766-3 0  9992
2 67649  97.2838  81.1221 0001102  96.7841  40.0363 15.75169201  3595
STARLINK-36703          
1 67650U 26022C   26048.16667824  .00034829  00000+0  23365-3 0  9993
2 67650  97.2839  81.1241 0001338 110.3643  32.4488 15.75168067  3596
STARLINK-36696          
1 67651U 26022D   26048.16667824 -.00041021  00000+0 -27526-3 0  9991
2 67651  97.2838  81.1283 0001545  64.8417  87.9598 15.75207300  3595
